[{"OBJECT_NAME":"STARLINK-32780","OBJECT_ID":"2025-014M","EPOCH":"2026-03-09T05:38:48.319872","MEAN_MOTION":15.27593172,"ECCENTRICITY":0.00017025,"INCLINATION":43.0027,"RA_OF_ASC_NODE":157.3244,"ARG_OF_PERICENTER":263.2687,"MEAN_ANOMALY":96.7971,"EPHEMERIS_TYPE":0,"CLASSIFICATION_TYPE":"U","NORAD_CAT_ID":62746,"ELEMENT_SET_NO":999,"REV_AT_EPOCH":6318,"BSTAR":0.00089767083,"MEAN_MOTION_DOT":0.00024532,"MEAN_MOTION_DDOT":0},{"OBJECT_NAME":"ARCSTONE","OBJECT_ID":"2025-135N","EPOCH":"2026-03-09T21:21:29.017152","MEAN_MOTION":15.28638458,"ECCENTRICITY":0.00041199,"INCLINATION":97.4495,"RA_OF_ASC_NODE":185.9194,"ARG_OF_PERICENTER":166.7863,"MEAN_ANOMALY":193.3485,"EPHEMERIS_TYPE":0,"CLASSIFICATION_TYPE":"U","NORAD_CAT_ID":64540,"ELEMENT_SET_NO":999,"REV_AT_EPOCH":3984,"BSTAR":0.00094899777,"MEAN_MOTION_DOT":0.00026427,"MEAN_MOTION_DDOT":0}]
